OBJECT_NAME,OBJECT_ID,EPOCH,MEAN_MOTION,ECCENTRICITY,INCLINATION,RA_OF_ASC_NODE,ARG_OF_PERICENTER,MEAN_ANOMALY,EPHEMERIS_TYPE,CLASSIFICATION_TYPE,NORAD_CAT_ID,ELEMENT_SET_NO,REV_AT_EPOCH,BSTAR,MEAN_MOTION_DOT,MEAN_MOTION_DDOT
LEMUR-1,2014-033AL,2026-07-06T08:37:15.113280,14.85319108,.00485182,97.7901,336.7410,16.9645,343.3179,0,U,40044,999,64831,.25242618E-3,.216E-4,0
LEMUR-2-GREENBERG,2017-042N,2026-07-06T18:02:59.312832,15.31966739,.0007188,97.3832,8.2953,295.9330,64.1170,0,U,42837,999,49138,.44885E-3,.13796E-3,0
LEMUR-2-ANDIS,2017-042P,2026-07-06T17:39:02.431584,15.35678970,.0007107,97.3685,8.5318,293.7973,66.2525,0,U,42838,999,49145,.51664E-3,.17878E-3,0
LEMUR-2-MONSON,2017-042Q,2026-07-06T17:42:49.156416,15.28600277,.0005141,97.4095,8.2234,284.6835,75.3834,0,U,42839,999,49115,.41953E-3,.11607E-3,0
LEMUR-2-FURIAUS,2017-042R,2026-07-06T10:22:52.469472,15.30929761,.00067243,97.3781,5.8885,4.0809,356.0486,0,U,42840,999,49115,.62538306E-3,.18651E-3,0
LEMUR-2-PETERG,2017-042S,2026-07-06T11:17:44.245536,15.34790924,.00028649,97.4000,12.5429,263.6027,96.4890,0,U,42841,999,49139,.7286602E-3,.24549E-3,0
LEMUR-2-DEMBITZ,2017-042T,2026-07-06T10:51:09.921888,15.30918269,.0005291,97.3834,8.9463,313.9812,46.0993,0,U,42842,999,49129,.57818256E-3,.17223E-3,0
LEMUR-2-ZACHARY,2017-042W,2026-07-06T11:30:10.052064,15.52103423,.00023392,97.3592,19.5481,292.4564,67.6440,0,U,42845,999,49219,.84327194E-3,.51075E-3,0
LEMUR-2-AMANDA-SVANTE,2021-034B,2026-07-06T04:46:01.886016,15.35552160,.00040367,97.5745,266.0000,164.2126,195.9244,0,U,48269,999,28397,.1020665E-2,.35315E-3,0
LEMUR-2-SPECIAL-K,2021-034F,2026-07-06T05:41:36.307392,15.71456484,.0005773,97.5636,275.5626,220.9079,139.1750,0,U,48273,999,28467,.18452951E-2,.241712E-2,0
LEMUR-2-EMBRIONOVIS,2023-084AQ,2026-07-06T07:58:45.842592,15.38065403,.00077014,97.6316,332.2754,241.1280,118.9192,0,U,56970,999,17062,.3802122E-3,.14178E-3,0
LEMUR-2-DEVERILL-M-T,2023-100F,2026-07-06T15:49:33.182976,15.40781966,.0004853,99.4457,232.0549,334.3234,25.7764,0,U,57391,999,16424,.53549E-3,.21851E-3,0
LEMUR-2-BASS,2023-174D,2026-07-06T18:57:36.837216,15.43791093,.0007987,97.3840,272.7845,102.9943,257.2197,0,U,58259,999,14838,.34469E-3,.15539E-3,0
LEMUR-2-JK0903EM1407,2023-174CJ,2026-07-06T17:48:33.319584,15.52744169,.0004313,97.3916,278.7771,60.8659,299.3025,0,U,58336,999,14876,.37988E-3,.23414E-3,0
LEMUR-2-MJR092620,2023-174CN,2026-07-06T17:10:24.674304,15.45636987,.0006071,97.3969,278.1135,58.6351,301.5491,0,U,58340,999,14866,.31298E-3,.15007E-3,0
LEMUR-2-NIMBUS2000,2024-022A,2026-07-06T19:50:45.861216,15.40859302,.0009558,97.4092,38.0827,55.6742,304.5408,0,U,58899,999,13529,.40833E-3,.16714E-3,0
LEMUR-2-VALHALLA,2024-022B,2026-07-06T13:38:55.807008,15.40297609,.0010098,97.4092,37.7991,52.3792,307.8369,0,U,58900,999,13525,.33871E-3,.13592E-3,0
LEMUR-2-CAEL,2024-022E,2026-07-06T13:29:07.988928,15.41646096,.0008065,97.4076,38.7626,38.7751,321.4074,0,U,58903,999,13532,.35485E-3,.14888E-3,0
LEMUR-2-JOHNNYTRUONG,2024-043BA,2026-07-06T09:05:40.503264,15.62025124,.00044471,97.5393,340.2928,119.3476,240.8226,0,U,59146,999,13103,.49242157E-3,.43037E-3,0
LEMUR-2-TOMATOKECHUP,2024-149D,2026-07-06T17:07:24.161376,15.36460405,.0002908,97.3789,269.8148,137.9028,222.2440,0,U,60471,999,10516,.255E-3,.8991E-4,0
LEMUR-2-STELLA,2024-149BT,2026-07-06T16:05:49.580736,15.12250312,.000118,97.6726,270.2156,108.9246,251.2112,0,U,60533,999,10344,.50034E-3,.8588E-4,0
LEMUR-2-MARHISYAM,2024-149BW,2026-07-06T04:40:43.214304,15.11655906,.00028719,97.6870,270.2058,83.2434,276.9123,0,U,60536,999,10335,.6311825E-3,.10677E-3,0
LEMUR-2-AHMED-ASRAR,2024-149DN,2026-07-06T11:24:00.928800,15.13174842,.000048,97.6996,272.6559,267.0246,93.0930,0,U,60576,999,10348,.53572E-3,.9441E-4,0
LEMUR-2-LLOYD,2024-149DP,2026-07-06T17:32:43.508832,15.09641264,.0004987,97.6735,268.8748,92.1025,268.0775,0,U,60577,999,10334,.44313E-3,.7068E-4,0
LEMUR-2-SQUIRRELCOMM,2024-149DQ,2026-07-06T16:57:55.016064,15.07387058,.0004878,97.6704,268.5586,358.1093,2.0115,0,U,60578,999,10334,.3848E-3,.5761E-4,0
LEMUR-2-SIERRINI,2024-149DR,2026-07-06T05:20:00.080160,15.11385219,.00066003,97.6837,269.9031,113.2698,246.9227,0,U,60579,999,10333,.69226988E-3,.11635E-3,0
LEMUR-2-WILSON,2025-009CP,2026-07-06T16:52:29.644896,14.95256068,.0002622,97.7020,265.8257,7.2206,352.9052,0,U,62694,999,8027,.26793E-3,.2892E-4,0
LEMUR-2-STAR-FOX,2025-009CR,2026-07-06T14:29:58.660224,15.02774699,.0003481,97.6928,269.0749,70.9430,289.2172,0,U,62696,999,8047,.42526E-3,.5629E-4,0
LEMUR-2-ARIANNA,2025-009CU,2026-07-06T04:52:28.437024,15.02770802,.00038727,97.6866,268.4362,76.7600,283.4057,0,U,62699,999,8041,.53415395E-3,.7087E-4,0
LEMUR-2-ALISIA,2025-009DB,2026-07-06T17:02:21.140160,15.03086294,.0003374,97.6950,269.7475,156.8621,203.2757,0,U,62706,999,10309,.54254E-3,.7259E-4,0
